NORAD_CAT_ID,OBJECT_NAME,OBJECT_TYPE,EPOCH,MEAN_MOTION,ECCENTRICITY,INCLINATION,RA_OF_ASC_NODE,ARG_OF_PERICENTER,MEAN_ANOMALY,BSTAR,MEAN_MOTION_DOT,MEAN_MOTION_DDOT,TLE_LINE0,TLE_LINE1,TLE_LINE2,SEMIMAJOR_AXIS,PERIOD,APOGEE,PERIGEE,DECAYED
52626.0,STARLINK-3990,PAYLOAD,2022-08-05 04:00:00,15.08849938,0.0001375999999999,53.2191,41.2666,70.1067,159.6863,-0.0020248,-0.00032377,0.0,0 STARLINK-3990,1 52626U 22052AE  22217.16667824 -.00032377  00000-0 -20248-2 0  9998,2 52626  53.2191  41.2666 0001376  70.1067 159.6863 15.08849938 13217,6917.85,95.437,540.6669999999998,538.763,0.0
52626.0,STARLINK-3990,PAYLOAD,2022-08-05 14:00:01,15.08849498,0.0001386999999999,53.2196,39.3957,77.0715,257.2669,-0.00065332,-0.00010673,0.0,0 STARLINK-3990,1 52626U 22052AE  22217.58335648 -.00010673  00000-0 -65332-3 0  9999,2 52626  53.2196  39.3957 0001387  77.0715 257.2669 15.08849498  1308,6917.851,95.437,540.6759999999998,538.757,0.0
52626.0,STARLINK-3990,PAYLOAD,2022-08-05 20:00:01,15.08836619,0.0001468,53.2195,38.2749,68.5834,184.4636,0.00070004,0.0001087,0.0,0 STARLINK-3990,1 52626U 22052AE  22217.83335648  .00010870  00000-0  70004-3 0  9996,2 52626  53.2195  38.2749 0001468  68.5834 184.4636 15.08836619 13311,6917.891,95.438,540.771,538.74,0.0
52626.0,STARLINK-3990,PAYLOAD,2022-08-05 22:00:00,15.08824556,0.0001462,53.2195,37.9011,67.5435,278.3431,0.0026652,0.00042366,0.0,0 STARLINK-3990,1 52626U 22052AE  22217.91667824  .00042366  00000-0  26652-2 0  9993,2 52626  53.2195  37.9011 0001462  67.5435 278.3431 15.08824556  1308,6917.928000000001,95.439,540.804,538.781,0.0
52626.0,STARLINK-3990,PAYLOAD,2022-08-06 14:00:01,15.08864682,0.0001438,53.2198,34.9071,77.766,291.3177,-0.0030025,-0.00047788,0.0,0 STARLINK-3990,1 52626U 22052AE  22218.58334491 -.00047788  00000-0 -30025-2 0  9992,2 52626  53.2198  34.9071 0001438  77.7660 291.3177 15.08864682  1306,6917.805,95.436,540.665,538.675,0.0
52626.0,STARLINK-3990,PAYLOAD,2022-08-06 20:00:01,15.08822308,0.0001554999999999,53.2196,33.7861,70.7496,217.0434,0.00094775,0.0001482,0.0,0 STARLINK-3990,1 52626U 22052AE  22218.83334491  .00014820  00000-0  94775-3 0  9992,2 52626  53.2196  33.7861 0001555  70.7496 217.0434 15.08822308 13468,6917.934,95.439,540.875,538.724,0.0
52626.0,STARLINK-3990,PAYLOAD,2022-08-06 22:00:00,15.08811189,0.0001527,53.2195,33.4123,69.7748,310.9168,0.0027604,0.00043883,0.0,0 STARLINK-3990,1 52626U 22052AE  22218.91667824  .00043883  00000-0  27604-2 0  9997,2 52626  53.2195  33.4123 0001527  69.7748 310.9168 15.08811189  1304,6917.968000000003,95.439,540.89,538.7769999999998,0.0
52626.0,STARLINK-3990,PAYLOAD,2022-08-07 12:13:02,15.08836251,0.0001405,53.2197,30.7513,74.1159,285.9988,2.0579e-05,4e-07,0.0,0 STARLINK-3990,1 52626U 22052AE  22219.50905733  .00000040  00000-0  20579-4 0  9991,2 52626  53.2197  30.7513 0001405  74.1159 285.9988 15.08836251 13198,6917.892,95.438,540.729,538.785,0.0
52626.0,STARLINK-3990,PAYLOAD,2022-08-07 22:00:00,15.08826022,0.0001472,53.2191,28.9235,70.6112,344.8566,0.0030042,0.0004783,0.0,0 STARLINK-3990,1 52626U 22052AE  22219.91667824  .00047830  00000-0  30042-2 0  9994,2 52626  53.2191  28.9235 0001472  70.6112 344.8566 15.08826022  1308,6917.9230000000025,95.438,540.806,538.77,0.0
52626.0,STARLINK-3990,PAYLOAD,2022-08-08 04:00:00,15.08868993,0.0001429,53.219,27.7999,75.8226,258.3426,-0.0017366,-0.00027841,0.0,0 STARLINK-3990,1 52626U 22052AE  22220.16667824 -.00027841  00000-0 -17366-2 0  9999,2 52626  53.2190  27.7999 0001429  75.8226 258.3426 15.08868993 13676,6917.792,95.436,540.645,538.668,0.0
52626.0,STARLINK-3990,PAYLOAD,2022-08-08 10:28:25,15.08853087,0.0001433,53.22,26.5884,74.3163,285.7988,7.7141e-05,9.4e-06,0.0,0 STARLINK-3990,1 52626U 22052AE  22220.43640357  .00000940  00000-0  77141-4 0  9999,2 52626  53.2200  26.5884 0001433  74.3163 285.7988 15.08853087 13717,6917.84,95.437,540.697,538.714,0.0
52626.0,STARLINK-3990,PAYLOAD,2022-08-08 14:00:01,15.08864803,0.0001503,53.2189,25.9295,80.1688,358.5836,-0.0020518,-0.00032816,0.0,0 STARLINK-3990,1 52626U 22052AE  22220.58335648 -.00032816  00000-0 -20518-2 0  9992,2 52626  53.2189  25.9295 0001503  80.1688 358.5836 15.08864803  1308,6917.805,95.436,540.7090000000002,538.63,0.0
52626.0,STARLINK-3990,PAYLOAD,2022-08-08 22:00:00,15.08843125,0.0001506999999999,53.2185,24.4344,71.4136,18.8912,0.00039232,5.962e-05,0.0,0 STARLINK-3990,1 52626U 22052AE  22220.91667824  .00005962  00000-0  39232-3 0  9997,2 52626  53.2185  24.4344 0001507  71.4136  18.8912 15.08843125  1303,6917.871,95.437,540.778,538.693,0.0
52626.0,STARLINK-3990,PAYLOAD,2022-08-09 04:00:00,15.08839684,0.0001436,53.2185,23.3106,77.5808,291.4243,-0.0015704,-0.00025194,0.0,0 STARLINK-3990,1 52626U 22052AE  22221.16667824 -.00025194  00000-0 -15704-2 0  9993,2 52626  53.2185  23.3106 0001436  77.5808 291.4243 15.08839684 13822,6917.880999999999,95.438,540.74,538.753,0.0
52626.0,STARLINK-3990,PAYLOAD,2022-08-09 14:00:01,15.08831821,0.0001518,53.2185,21.4405,80.2708,33.2099,-0.0023936,-0.00038172,0.0,0 STARLINK-3990,1 52626U 22052AE  22221.58334491 -.00038172  00000-0 -23936-2 0  9996,2 52626  53.2185  21.4405 0001518  80.2708  33.2099 15.08831821  1300,6917.905,95.438,540.821,538.72,0.0
52626.0,STARLINK-3990,PAYLOAD,2022-08-09 22:00:00,15.08794259,0.0001546,53.2182,19.9452,71.6358,53.4186,0.0030993,0.00049321,0.0,0 STARLINK-3990,1 52626U 22052AE  22221.91667824  .00049321  00000-0  30993-2 0  9999,2 52626  53.2182  19.9452 0001546  71.6358  53.4186 15.08794259  1301,6918.02,95.44,540.955,538.816,0.0
52626.0,STARLINK-3990,PAYLOAD,2022-08-10 04:00:00,15.08822927,0.0001506,53.2184,18.8215,78.0951,325.6269,-0.00049338,-8.128e-05,0.0,0 STARLINK-3990,1 52626U 22052AE  22222.16667824 -.00008128  00000-0 -49338-3 0  9993,2 52626  53.2184  18.8215 0001506  78.0951 325.6269 15.08822927 13970,6917.933000000001,95.439,540.839,538.756,0.0
52626.0,STARLINK-3990,PAYLOAD,2022-08-10 14:00:01,15.08844155,0.0001561999999999,53.2185,16.9514,78.9021,69.283,-0.0014294,-0.00022967,0.0,0 STARLINK-3990,1 52626U 22052AE  22222.58334491 -.00022967  00000-0 -14294-2 0  9999,2 52626  53.2185  16.9514 0001562  78.9021  69.2830 15.08844155  1307,6917.868,95.437,540.813,538.6519999999998,0.0
52626.0,STARLINK-3990,PAYLOAD,2022-08-10 20:00:01,15.08813217,0.0001587,53.2186,15.8302,72.3494,354.5346,0.0027419,0.00043587,0.0,0 STARLINK-3990,1 52626U 22052AE  22222.83334491  .00043587  00000-0  27419-2 0  9999,2 52626  53.2186  15.8302 0001587  72.3494 354.5346 15.08813217 14075,6917.962,95.439,540.925,538.729,0.0
52626.0,STARLINK-3990,PAYLOAD,2022-08-10 22:00:00,15.08818524,0.0001558,53.2184,15.4559,70.4057,89.37200000000001,0.0027107,0.00043091,0.0,0 STARLINK-3990,1 52626U 22052AE  22222.91667824  .00043091  00000-0  27107-2 0  9991,2 52626  53.2184  15.4559 0001558  70.4057  89.3720 15.08818524  1302,6917.946,95.439,540.889,538.7330000000002,0.0
52626.0,STARLINK-3990,PAYLOAD,2022-08-11 14:00:01,15.08857417,0.000149,53.2189,12.4623,76.1657,106.7969,-0.0036935,-0.0005862,0.0,0 STARLINK-3990,1 52626U 22052AE  22223.58334491 -.00058620  00000-0 -36935-2 0  9991,2 52626  53.2189  12.4623 0001490  76.1657 106.7969 15.08857417  1303,6917.8269999999975,95.436,540.7230000000002,538.661,0.0
52626.0,STARLINK-3990,PAYLOAD,2022-08-11 20:00:01,15.08804221,0.0001479,53.2191,11.341,68.5748,33.0959,0.0032578,0.00051891,0.0,0 STARLINK-3990,1 52626U 22052AE  22223.83334491  .00051891  00000-0  32578-2 0  9999,2 52626  53.2191  11.3410 0001479  68.5748  33.0959 15.08804221 14222,6917.99,95.44,540.878,538.832,0.0
52626.0,STARLINK-3990,PAYLOAD,2022-08-12 12:00:00,15.08863866,0.0001425,53.2196,8.3468,75.8866,48.9491,-0.00091362,-0.00014808,0.0,0 STARLINK-3990,1 52626U 22052AE  22224.50001157 -.00014808  00000-0 -91362-3 0  9990,2 52626  53.2196   8.3468 0001425  75.8866  48.9491 15.08863866 14326,6917.807,95.436,540.658,538.687,0.0
52626.0,STARLINK-3990,PAYLOAD,2022-08-12 14:00:01,15.08869496,0.0001431,53.2196,7.9734,72.848,144.8911,-0.002185,-0.00034922,0.0,0 STARLINK-3990,1 52626U 22052AE  22224.58334491 -.00034922  00000-0 -21850-2 0  9991,2 52626  53.2196   7.9734 0001431  72.8480 144.8911 15.08869496  1305,6917.79,95.436,540.645,538.665,0.0
52626.0,STARLINK-3990,PAYLOAD,2022-08-12 22:00:01,15.08834125,0.0001389,53.2196,6.4777,64.8614,164.558,0.00074169,0.00011534,0.0,0 STARLINK-3990,1 52626U 22052AE  22224.91668981  .00011534  00000-0  74169-3 0  9996,2 52626  53.2196   6.4777 0001389  64.8614 164.5580 15.08834125  1300,6917.898,95.438,540.724,538.802,0.0
52626.0,STARLINK-3990,PAYLOAD,2022-08-13 14:00:01,15.08833753,0.0001436,53.2201,3.4847,71.556,180.9816,-0.0016659,-0.00026698,0.0,0 STARLINK-3990,1 52626U 22052AE  22225.58334491 -.00026698  00000-0 -16659-2 0  9994,2 52626  53.2201   3.4847 0001436  71.5560 180.9816 15.08833753  1300,6917.899,95.438,540.758,538.771,0.0
52626.0,STARLINK-3990,PAYLOAD,2022-08-13 22:00:00,15.08823977,0.0001439,53.2199,1.9889,66.1254,197.9854,0.00061366,9.488e-05,0.0,0 STARLINK-3990,1 52626U 22052AE  22225.91667824  .00009488  00000-0  61366-3 0  9992,2 52626  53.2199   1.9889 0001439  66.1254 197.9854 15.08823977  1305,6917.929,95.439,540.79,538.799,0.0
52626.0,STARLINK-3990,PAYLOAD,2022-08-14 12:00:00,15.08856559,0.0001372,53.2204,359.3698,74.222,120.1638,-0.0010241,-0.00016557,0.0,0 STARLINK-3990,1 52626U 22052AE  22226.50001157 -.00016557  00000-0 -10241-2 0  9991,2 52626  53.2204 359.3698 0001372  74.2220 120.1638 15.08856559 14628,6917.83,95.437,540.644,538.746,0.0
52626.0,STARLINK-3990,PAYLOAD,2022-08-14 14:00:01,15.08850598,0.0001382,53.2183,358.9962,71.3292,215.9529,-0.0018509,-0.00029633,0.0,0 STARLINK-3990,1 52626U 22052AE  22226.58334491 -.00029633  00000-0 -18509-2 0  9993,2 52626  53.2183 358.9962 0001382  71.3292 215.9529 15.08850598  1301,6917.848000000001,95.437,540.669,538.757,0.0
